X,Y,name,folders,descriptio,descripci�,gx_media_l,nombre,x,y,icon_url
-70.61119444,19.72308333,"MONTE LLANO, PUERTO PLATA",TERRENO,"<img src=""https://doc-0k-9s-mymaps.googleusercontent.com/untrusted/hostedimage/n8iup2omsln2bbcql4f65nkp7k/tqgqjkgk1rj3ba1thv4p18m7j4/1642520769500/YxVS6hvJdcyzigFQtcUxfDRJRPekVVtH/00867828750103162931/5AIsG_vaFViiCeWvez7ZTClzjsPWwzGKjs0Jm8kasgZlT4Zxf-yyZ",,,https://doc-0k-9s-mymaps.googleusercontent.com/untrusted/hostedimage/n8iup2omsln2bbcql4f65nkp7k/tqgqjkgk1rj3ba1thv4p18m7j4/1642520769500/YxVS6hvJdcyzigFQtcUxfDRJRPekVVtH/00867828750103162931/5AIsG_vaFViiCeWvez7ZTClzjsPWwzGKjs0Jm8kasgZlT4Zxf-yyZY50gJvQ9e-,"-70.61119444","19.72308333",./0.png
-71.7023915,19.5782526,TERRENOSÂ  VILLA PROGRESO DAJABON,TERRENO,"<img src=""https://doc-0g-9s-mymaps.googleusercontent.com/untrusted/hostedimage/n8iup2omsln2bbcql4f65nkp7k/u52h5n75qqevmpoq5sll26mkfg/1642520769500/YxVS6hvJdcyzigFQtcUxfDRJRPekVVtH/00867828750103162931/5AIsG_vbVtPhY3crWCedIxAw3Qeh6RxEJp78OmC-PDKp_twM1Xm1D","10 de marzo 2021
Distrito Nacional, RD. 


Respetuosamente, Siendo las 04:00 horas del dÃ­a de la fecha, un equipo de la DirecciÃ³n de seguridad compuesto por diez (10) miembros, encabezados por el mayor Julio Cesar Landa Duran, FARD., encargado de S",,https://doc-0g-9s-mymaps.googleusercontent.com/untrusted/hostedimage/n8iup2omsln2bbcql4f65nkp7k/u52h5n75qqevmpoq5sll26mkfg/1642520769500/YxVS6hvJdcyzigFQtcUxfDRJRPekVVtH/00867828750103162931/5AIsG_vbVtPhY3crWCedIxAw3Qeh6RxEJp78OmC-PDKp_twM1Xm1Da4-QvsF6R4,"-71.7023915","19.5782526",./0.png
-71.4851,19.70076,TERRENOS VILLA ESPERANZA LOMA DE CASTAÃ‘UELA,TERRENO,"<img src=""https://doc-10-9s-mymaps.googleusercontent.com/untrusted/hostedimage/n8iup2omsln2bbcql4f65nkp7k/61s538c6tnhrepiicmbc6a0iq8/1642520769500/YxVS6hvJdcyzigFQtcUxfDRJRPekVVtH/00867828750103162931/5AIsG_vb11dCJidmn_OazO1F_uKdKFLZCyR0OHIzQr7raSktLvkwj",,,https://doc-10-9s-mymaps.googleusercontent.com/untrusted/hostedimage/n8iup2omsln2bbcql4f65nkp7k/61s538c6tnhrepiicmbc6a0iq8/1642520769500/YxVS6hvJdcyzigFQtcUxfDRJRPekVVtH/00867828750103162931/5AIsG_vb11dCJidmn_OazO1F_uKdKFLZCyR0OHIzQr7raSktLvkwjTG5Dqp3cQq,"-71.4851","19.70076",./0.png
-71.23925,18.82052778,TERRENOS VILLA PROGRESO SAN JUAN,TERRENO,"<img src=""https://doc-0o-9s-mymaps.googleusercontent.com/untrusted/hostedimage/n8iup2omsln2bbcql4f65nkp7k/og2049qr7o451vvtms0bsprjm8/1642520769500/YxVS6hvJdcyzigFQtcUxfDRJRPekVVtH/00867828750103162931/5AIsG_vbk7J4RYXEbpS9rFksBrLudoCmPKVPzksYwctM7o-eiovNT","â€¢	Encargado: 1Tte. Junior Motero Ortiz, ERD.
â€¢	Incidencia de novedades: Mediana 
â€¢	Apartamentos por entregar: Ninguno
â€¢	SituaciÃ³n general: Terreno muy extenso, muchas Ã¡reas verdes que se prestan para ser invadidas; parte de",,https://doc-0o-9s-mymaps.googleusercontent.com/untrusted/hostedimage/n8iup2omsln2bbcql4f65nkp7k/og2049qr7o451vvtms0bsprjm8/1642520769500/YxVS6hvJdcyzigFQtcUxfDRJRPekVVtH/00867828750103162931/5AIsG_vbk7J4RYXEbpS9rFksBrLudoCmPKVPzksYwctM7o-eiovNTsGxuLBs63-,"-71.23925","18.82052778",./0.png
-70.16394444,18.39469444,"TERRENOS LAS CASITAS, SAN CRISTOBAL",TERRENO,"<img src=""https://doc-00-9s-mymaps.googleusercontent.com/untrusted/hostedimage/n8iup2omsln2bbcql4f65nkp7k/0t9mefjg3vk1efa4u8qc6tgf38/1642520769500/YxVS6hvJdcyzigFQtcUxfDRJRPekVVtH/00867828750103162931/5AIsG_vbedqLuHlmyTd4EG-jc1y2c4CqEHdVBzGxkU-Zc9ey9qzxv",,,https://doc-00-9s-mymaps.googleusercontent.com/untrusted/hostedimage/n8iup2omsln2bbcql4f65nkp7k/0t9mefjg3vk1efa4u8qc6tgf38/1642520769500/YxVS6hvJdcyzigFQtcUxfDRJRPekVVtH/00867828750103162931/5AIsG_vbedqLuHlmyTd4EG-jc1y2c4CqEHdVBzGxkU-Zc9ey9qzxviqy2S0oRdn,"-70.16394444","18.39469444",./0.png
-71.8552892,18.497328,VILLA SOLIDARIDAD JIMANI,TERRENO,"<img src=""https://doc-0k-9s-mymaps.googleusercontent.com/untrusted/hostedimage/n8iup2omsln2bbcql4f65nkp7k/54kvoarf0f54sj5h45o6p4pnhk/1642520769500/YxVS6hvJdcyzigFQtcUxfDRJRPekVVtH/00867828750103162931/5AIsG_vZ8iKczpEaEmpaI_0dOTtdUJFd53n2NDak5tEJJkdK0TehW",,,https://doc-0k-9s-mymaps.googleusercontent.com/untrusted/hostedimage/n8iup2omsln2bbcql4f65nkp7k/54kvoarf0f54sj5h45o6p4pnhk/1642520769500/YxVS6hvJdcyzigFQtcUxfDRJRPekVVtH/00867828750103162931/5AIsG_vZ8iKczpEaEmpaI_0dOTtdUJFd53n2NDak5tEJJkdK0TehWRsf59SuD6L,"-71.8552892","18.497328",./0.png
-69.23,18.73936111,"TERRENOS JUNTO A VILLA PROGRESO LOS HATILLOS, HATO MAYOR",TERRENO,"<img src=""https://doc-0c-9s-mymaps.googleusercontent.com/untrusted/hostedimage/n8iup2omsln2bbcql4f65nkp7k/3er5nnjr8u1vgkn08l0ju901ak/1642520769500/YxVS6hvJdcyzigFQtcUxfDRJRPekVVtH/00867828750103162931/5AIsG_va4JcYfKxbVPlUmOCh1o7T-l4HzwOCFHP_rgby490hycbPw",,,https://doc-0c-9s-mymaps.googleusercontent.com/untrusted/hostedimage/n8iup2omsln2bbcql4f65nkp7k/3er5nnjr8u1vgkn08l0ju901ak/1642520769500/YxVS6hvJdcyzigFQtcUxfDRJRPekVVtH/00867828750103162931/5AIsG_va4JcYfKxbVPlUmOCh1o7T-l4HzwOCFHP_rgby490hycbPw_HFDoyXGF4,"-69.23","18.73936111",./0.png
-69.963259,18.5738486,EL HIGUERO PROXIMO AL VERTEDERO,TERRENO,<br><br>nombre: <br>descripciÃ³n:,,,,"-69.963259","18.5738486",./0.png
-71.23647,18.82765,"TERRENOS DEL INVI EN SAN JUAN, PROXIMO A VILLA PROGRESO",TERRENO,"<img src=""https://doc-0s-9s-mymaps.googleusercontent.com/untrusted/hostedimage/n8iup2omsln2bbcql4f65nkp7k/q9j0h0l0ltma28e13g6vp08acs/1642520769500/YxVS6hvJdcyzigFQtcUxfDRJRPekVVtH/00867828750103162931/5AIsG_vYGIEjTfZ3Qd-iYAA6Ukq-reARWcKa3Zx8ZokLCaRO0xJ9I","â€¢	Encargado:	1Tte. Junior Montero Ortiz, ERD.
â€¢	Incidencia de novedades:	 Mediana
â€¢	Apartamentos por entregar:	Ninguno
â€¢	SituaciÃ³n general:	Terreno recuperado.",,https://doc-0s-9s-mymaps.googleusercontent.com/untrusted/hostedimage/n8iup2omsln2bbcql4f65nkp7k/q9j0h0l0ltma28e13g6vp08acs/1642520769500/YxVS6hvJdcyzigFQtcUxfDRJRPekVVtH/00867828750103162931/5AIsG_vYGIEjTfZ3Qd-iYAA6Ukq-reARWcKa3Zx8ZokLCaRO0xJ9IofRyPP4v3Z,"-71.23647","18.82765",./0.png
-69.8587909,19.3909339,TERRENOS NAGUA PROXÂ  VILLA PROGRESO,TERRENO,"<img src=""https://doc-0g-9s-mymaps.googleusercontent.com/untrusted/hostedimage/n8iup2omsln2bbcql4f65nkp7k/uoah3i1c6v1ubilgp1qe6r32rc/1642520769500/YxVS6hvJdcyzigFQtcUxfDRJRPekVVtH/00867828750103162931/5AIsG_vbqozvYh6Bef3cBU3O6DnE4DEEAjoueYLVWJEu84fhkftkN",,,https://doc-0g-9s-mymaps.googleusercontent.com/untrusted/hostedimage/n8iup2omsln2bbcql4f65nkp7k/uoah3i1c6v1ubilgp1qe6r32rc/1642520769500/YxVS6hvJdcyzigFQtcUxfDRJRPekVVtH/00867828750103162931/5AIsG_vbqozvYh6Bef3cBU3O6DnE4DEEAjoueYLVWJEu84fhkftkNxVKpBDkwt8,"-69.8587909","19.3909339",./0.png
-69.28313889,18.80469444,"PROYECTO EL MANCHADO, HATO MAYOR",PROYECTOS,"<img src=""https://doc-14-9s-mymaps.googleusercontent.com/untrusted/hostedimage/n8iup2omsln2bbcql4f65nkp7k/297fo3cngm18vnncvcfbq2vuag/1642520769500/YxVS6hvJdcyzigFQtcUxfDRJRPekVVtH/00867828750103162931/5AIsG_vaKFPvY1zCF-plV6vUuRzIgfdnJwsPn0d-vuieTZwpi8elQ",,,https://doc-14-9s-mymaps.googleusercontent.com/untrusted/hostedimage/n8iup2omsln2bbcql4f65nkp7k/297fo3cngm18vnncvcfbq2vuag/1642520769500/YxVS6hvJdcyzigFQtcUxfDRJRPekVVtH/00867828750103162931/5AIsG_vaKFPvY1zCF-plV6vUuRzIgfdnJwsPn0d-vuieTZwpi8elQTeuHHSk327,"-69.28313889","18.80469444",./0.png
-70.33313889,18.85258333,PROYECTO EL CAUCHO BONAO,PROYECTOS,"<img src=""https://doc-0s-9s-mymaps.googleusercontent.com/untrusted/hostedimage/n8iup2omsln2bbcql4f65nkp7k/pofhgsjq97r83khia41s2d2evs/1642520769500/YxVS6hvJdcyzigFQtcUxfDRJRPekVVtH/00867828750103162931/5AIsG_vbrbo3970xSzWIyfqu09sFMlwH9GPjwVHLxcnJUpzvFi-st",,este es un proyecto del 2008,https://doc-0s-9s-mymaps.googleusercontent.com/untrusted/hostedimage/n8iup2omsln2bbcql4f65nkp7k/pofhgsjq97r83khia41s2d2evs/1642520769500/YxVS6hvJdcyzigFQtcUxfDRJRPekVVtH/00867828750103162931/5AIsG_vbrbo3970xSzWIyfqu09sFMlwH9GPjwVHLxcnJUpzvFi-stpTUMCFC32V,"-70.33313889","18.85258333",./0.png
-71.2865409,17.8650045,VILLA PROGRESO JUANCHO PEDERNALES,PROYECTOS,"<img src=""https://doc-14-9s-mymaps.googleusercontent.com/untrusted/hostedimage/n8iup2omsln2bbcql4f65nkp7k/0j9bouv8nnpkeuo0m1ut7m3uq8/1642520769500/YxVS6hvJdcyzigFQtcUxfDRJRPekVVtH/00867828750103162931/5AIsG_vaR_sNe6sFeLbL49y_XoLytCNjb9lSUpIr9kAwkU1dw5WwF","â€¢	Encargado: T/C. MIGUEL LORENZO MATOS, ARD.
â€¢	Incidencia de novedades. Baja
â€¢	Infraestructura: Buena 
â€¢	Apartamentos por entregar: Ningunos 
â€¢	SituaciÃ³n general	Todos los aptos entregados",,https://doc-14-9s-mymaps.googleusercontent.com/untrusted/hostedimage/n8iup2omsln2bbcql4f65nkp7k/0j9bouv8nnpkeuo0m1ut7m3uq8/1642520769500/YxVS6hvJdcyzigFQtcUxfDRJRPekVVtH/00867828750103162931/5AIsG_vaR_sNe6sFeLbL49y_XoLytCNjb9lSUpIr9kAwkU1dw5WwF8qZORYgyDc,"-71.2865409","17.8650045",./0.png
-70.59152778,19.48191667,VILLA PROGRESO TAMBORIL,PROYECTOS,"<img src=""https://doc-0o-9s-mymaps.googleusercontent.com/untrusted/hostedimage/n8iup2omsln2bbcql4f65nkp7k/lhohcgc2e72q5il2vsee41r4ok/1642520769500/YxVS6hvJdcyzigFQtcUxfDRJRPekVVtH/00867828750103162931/5AIsG_vYwksnSKtaNfTilEpLC95uTspD6PgF0YF4uzlWYpga_QLkb",,Este proyecto se encuentra en Tamboril Santiago de los caballeros,https://doc-0o-9s-mymaps.googleusercontent.com/untrusted/hostedimage/n8iup2omsln2bbcql4f65nkp7k/lhohcgc2e72q5il2vsee41r4ok/1642520769500/YxVS6hvJdcyzigFQtcUxfDRJRPekVVtH/00867828750103162931/5AIsG_vYwksnSKtaNfTilEpLC95uTspD6PgF0YF4uzlWYpga_QLkbmCvP0hYK9c,"-70.59152778","19.48191667",./0.png
-71.3303611,17.8514134,VILLA PROGRESO LA COLONIA PEDERNALES,PROYECTOS,"<img src=""https://doc-00-9s-mymaps.googleusercontent.com/untrusted/hostedimage/n8iup2omsln2bbcql4f65nkp7k/j9rh4u1nhun1nt9gktn59oe928/1642520769500/YxVS6hvJdcyzigFQtcUxfDRJRPekVVtH/00867828750103162931/5AIsG_vZx4ecg2ZQDrgPs2kqAMkfQWY0xBJM5rUeszQ3SaW2vf0YU","â€¢	Encargado: T/C. MIGUEL LORENZO MATOS, ARD.
â€¢	Incidencia de novedades: Baja
â€¢	Apartamentos por entregar: Ninguno 
â€¢	SituaciÃ³n general: Sin novedades",,https://doc-00-9s-mymaps.googleusercontent.com/untrusted/hostedimage/n8iup2omsln2bbcql4f65nkp7k/j9rh4u1nhun1nt9gktn59oe928/1642520769500/YxVS6hvJdcyzigFQtcUxfDRJRPekVVtH/00867828750103162931/5AIsG_vZx4ecg2ZQDrgPs2kqAMkfQWY0xBJM5rUeszQ3SaW2vf0YUbzHXPFiNcG,"-71.3303611","17.8514134",./0.png
-69.19505556,18.53558333,RAMÃ“N SANTANA (SAN PEDRO DE MACORÃS),PROYECTOS,"<img src=""https://doc-0k-9s-mymaps.googleusercontent.com/untrusted/hostedimage/n8iup2omsln2bbcql4f65nkp7k/gtvpd1rfmi3ja56pkir56vb550/1642520769500/YxVS6hvJdcyzigFQtcUxfDRJRPekVVtH/00867828750103162931/5AIsG_vZlXqqjy03iFwqIypW5BxLAAmcjBv6PE85nrgd2ArwAYZiY","â€¢	Encargado: Ninguno
â€¢	Incidencia de novedades: Baja
â€¢	Apartamentos por entregar: ConstrucciÃ³n
â€¢	SituaciÃ³n general: 	Este proyecto estÃ¡ en construcciÃ³n, actualmente detenido, no tiene personal de seguridad por no ser r",,https://doc-0k-9s-mymaps.googleusercontent.com/untrusted/hostedimage/n8iup2omsln2bbcql4f65nkp7k/gtvpd1rfmi3ja56pkir56vb550/1642520769500/YxVS6hvJdcyzigFQtcUxfDRJRPekVVtH/00867828750103162931/5AIsG_vZlXqqjy03iFwqIypW5BxLAAmcjBv6PE85nrgd2ArwAYZiY7qfLvQyNUH,"-69.19505556","18.53558333",./0.png
-71.39408333,17.80030556,VILLA OVIEDO PEDERNALES,PROYECTOS,"<img src=""https://doc-04-9s-mymaps.googleusercontent.com/untrusted/hostedimage/n8iup2omsln2bbcql4f65nkp7k/deisipo2p08o86oscjcd0u23h0/1642520769500/YxVS6hvJdcyzigFQtcUxfDRJRPekVVtH/00867828750103162931/5AIsG_vbu3j-BzF92lDBvJpgbD2nCrZZQJomovSugnDYMYdAdUVjo","â€¢	Encargado: T/C. MIGUEL LORENZO MATOS, ARD.
â€¢	Incidencia de novedades: Baja
â€¢	Apartamentos por entregar: Ninguno 
â€¢	SituaciÃ³n general: Sin novedad",,https://doc-04-9s-mymaps.googleusercontent.com/untrusted/hostedimage/n8iup2omsln2bbcql4f65nkp7k/deisipo2p08o86oscjcd0u23h0/1642520769500/YxVS6hvJdcyzigFQtcUxfDRJRPekVVtH/00867828750103162931/5AIsG_vbu3j-BzF92lDBvJpgbD2nCrZZQJomovSugnDYMYdAdUVjo69ZwJoAChP,"-71.39408333","17.80030556",./0.png
-71.72827778,18.02869444,VILLA PROGRESO PEDERNALES,PROYECTOS,"<img src=""https://doc-04-9s-mymaps.googleusercontent.com/untrusted/hostedimage/n8iup2omsln2bbcql4f65nkp7k/u7q7m06u4eli9pb15lscc6m384/1642520769500/YxVS6hvJdcyzigFQtcUxfDRJRPekVVtH/00867828750103162931/5AIsG_vYQ3qvQSwyawAXBUZy5hvg8G41PB0fEl4IHnmFNURpHE0Td","â€¢	Encargado: T/C. MIGUEL LORENZO MATOS, ARD.
â€¢	Incidencia de novedades: Baja
â€¢	Apartamentos por entregar: Ninguno 
â€¢	SituaciÃ³n genera: Sin novedad a excepciÃ³n de una persona tiene en venta uno de los apartamentos como se pue",,https://doc-04-9s-mymaps.googleusercontent.com/untrusted/hostedimage/n8iup2omsln2bbcql4f65nkp7k/u7q7m06u4eli9pb15lscc6m384/1642520769500/YxVS6hvJdcyzigFQtcUxfDRJRPekVVtH/00867828750103162931/5AIsG_vYQ3qvQSwyawAXBUZy5hvg8G41PB0fEl4IHnmFNURpHE0TdBuuta6FC8D,"-71.72827778","18.02869444",./0.png
-69.4932988,18.6306111,LOS LLANOS DE SAN PEDRO,PROYECTOS,"<img src=""https://doc-14-9s-mymaps.googleusercontent.com/untrusted/hostedimage/n8iup2omsln2bbcql4f65nkp7k/d3de8pu4sat0isivqjf9ia506s/1642520769500/YxVS6hvJdcyzigFQtcUxfDRJRPekVVtH/00867828750103162931/5AIsG_van25u3rjQkli1Yd2_Mbw7tec9sB5qFHBjGwFkIZb29ZWBp","â€¢	Encargado: Ninguno
â€¢	Incidencia de novedades: baja
â€¢	Apartamentos por entregar: Todos
â€¢	SituaciÃ³n general: Este proyecto estÃ¡ en construcciÃ³n, actualmente detenido, no tiene personal de seguridad por no ser requerido po",,https://doc-14-9s-mymaps.googleusercontent.com/untrusted/hostedimage/n8iup2omsln2bbcql4f65nkp7k/d3de8pu4sat0isivqjf9ia506s/1642520769500/YxVS6hvJdcyzigFQtcUxfDRJRPekVVtH/00867828750103162931/5AIsG_van25u3rjQkli1Yd2_Mbw7tec9sB5qFHBjGwFkIZb29ZWBpHnw3ZyeUjh,"-69.4932988","18.6306111",./0.png
-68.98502778,18.43916667,VILLA SAN CARLOS,PROYECTOS,"<img src=""https://doc-0s-9s-mymaps.googleusercontent.com/untrusted/hostedimage/n8iup2omsln2bbcql4f65nkp7k/otmnms00d88quqhahca9dqnp7g/1642520769500/YxVS6hvJdcyzigFQtcUxfDRJRPekVVtH/00867828750103162931/5AIsG_vZlGjhPdkkR8g7bxbNbZbGGkSlp7flkXOccqI3Ghxr4Rfpm","â€¢	Encargado	Ninguno
â€¢	Incidencia de novedades.	Alta
â€¢	Apartamentos por entregar.	Ninguno
â€¢	SituaciÃ³n general	En este proyecto entregado hace un tiempo prolongado, a falta de supervisiÃ³n constante gran parte de las franjas de",,https://doc-0s-9s-mymaps.googleusercontent.com/untrusted/hostedimage/n8iup2omsln2bbcql4f65nkp7k/otmnms00d88quqhahca9dqnp7g/1642520769500/YxVS6hvJdcyzigFQtcUxfDRJRPekVVtH/00867828750103162931/5AIsG_vZlGjhPdkkR8g7bxbNbZbGGkSlp7flkXOccqI3Ghxr4RfpmeubY0wyYW_,"-68.98502778","18.43916667",./0.png
-69.0161667,18.9634167,VILLA PROGRESO MICHES,PROYECTOS,"<img src=""https://doc-0k-9s-mymaps.googleusercontent.com/untrusted/hostedimage/n8iup2omsln2bbcql4f65nkp7k/qau3l6h2tbm482tv3c2e6rei8g/1642520769500/YxVS6hvJdcyzigFQtcUxfDRJRPekVVtH/00867828750103162931/5AIsG_vZja2DSANcweYpWp42hO5KvUxeXzGdbdLrje-4UYA9YrxlD","â€¢	Encargado: Ninguno
â€¢	Incidencia de novedades: Ninguna
â€¢	Apartamentos por entregar.	Ninguno
â€¢	SituaciÃ³n general: Este Proyecto fue entregado completo y no tenemos personal de Seguridad en Ã©l.",,https://doc-0k-9s-mymaps.googleusercontent.com/untrusted/hostedimage/n8iup2omsln2bbcql4f65nkp7k/qau3l6h2tbm482tv3c2e6rei8g/1642520769500/YxVS6hvJdcyzigFQtcUxfDRJRPekVVtH/00867828750103162931/5AIsG_vZja2DSANcweYpWp42hO5KvUxeXzGdbdLrje-4UYA9YrxlDux_coq32OC,"-69.0161667","18.9634167",./0.png
-69.37533333,19.05069444,VILLA PROGRESO SABANA DE LA MAR,PROYECTOS,"<img src=""https://doc-14-9s-mymaps.googleusercontent.com/untrusted/hostedimage/n8iup2omsln2bbcql4f65nkp7k/mgtui4p1ijogd7fi5r06pc6bm8/1642520769500/YxVS6hvJdcyzigFQtcUxfDRJRPekVVtH/00867828750103162931/5AIsG_vaUOpkZsfbXFdTkIvY8WxGtSw8h3JnArqtikggJjhVY-4eM","â€¢	Encargado: CapitÃ¡n de Fragata Adrians GarcÃ­a 
â€¢	Incidencia de novedades: Alta
â€¢	Apartamentos por entregar: Se entregaron todos, pero tenemos 13 sin ocupar
â€¢	SituaciÃ³n general: Este Proyecto fue entregado completo la est",,https://doc-14-9s-mymaps.googleusercontent.com/untrusted/hostedimage/n8iup2omsln2bbcql4f65nkp7k/mgtui4p1ijogd7fi5r06pc6bm8/1642520769500/YxVS6hvJdcyzigFQtcUxfDRJRPekVVtH/00867828750103162931/5AIsG_vaUOpkZsfbXFdTkIvY8WxGtSw8h3JnArqtikggJjhVY-4eMgmfKEsbZn_,"-69.37533333","19.05069444",./0.png
-70.195,19.26122222,"PONTÃ“N, PROVINCIA DUARTE",PROYECTOS,"<img src=""https://doc-0k-9s-mymaps.googleusercontent.com/untrusted/hostedimage/n8iup2omsln2bbcql4f65nkp7k/kae45cunjv5ab1fm75t7nsp3jg/1642520769500/YxVS6hvJdcyzigFQtcUxfDRJRPekVVtH/00867828750103162931/5AIsG_vaX4ywJ2vqc8QVbcbJoDvbUvn-T1mPTH-pZU3qojeQbey7F","*Encargado: CapitÃ¡n JosÃ© G. Vasquez Salce, ERD.
*Incidencia de novedades: Baja 
*Apartamentos por entregar.	Tres (3) 
*SituaciÃ³n general: ConstrucciÃ³n de seis (6) casas de blocks y zinc en el Ã¡rea verde, construida hace mÃ¡s de una dÃ©",,https://doc-0k-9s-mymaps.googleusercontent.com/untrusted/hostedimage/n8iup2omsln2bbcql4f65nkp7k/kae45cunjv5ab1fm75t7nsp3jg/1642520769500/YxVS6hvJdcyzigFQtcUxfDRJRPekVVtH/00867828750103162931/5AIsG_vaX4ywJ2vqc8QVbcbJoDvbUvn-T1mPTH-pZU3qojeQbey7F3KET8uiLK0,"-70.195","19.26122222",./0.png
-70.11505556,19.2045,"VILLA PROGRESO PIMENTEL, PROVINCIA DUARTE",PROYECTOS,"<img src=""https://doc-0s-9s-mymaps.googleusercontent.com/untrusted/hostedimage/n8iup2omsln2bbcql4f65nkp7k/re9q94v0ngmhq0pljmlkfo8n8o/1642520769500/YxVS6hvJdcyzigFQtcUxfDRJRPekVVtH/00867828750103162931/5AIsG_va2vbRDqla-456wev87_mzcoERExopxPdpNYPoDckSx6bqH","*Encargado: CapitÃ¡n JosÃ© G. Vasquez Salce, ERD. 
*Incidencia de novedades: Baja 
*SituaciÃ³n general: Solo tenemos terrenos que componen el Ã¡rea verde de este proyecto.",,https://doc-0s-9s-mymaps.googleusercontent.com/untrusted/hostedimage/n8iup2omsln2bbcql4f65nkp7k/re9q94v0ngmhq0pljmlkfo8n8o/1642520769500/YxVS6hvJdcyzigFQtcUxfDRJRPekVVtH/00867828750103162931/5AIsG_va2vbRDqla-456wev87_mzcoERExopxPdpNYPoDckSx6bqHvy4zMpfO4M,"-70.11505556","19.2045",./0.png
-69.88752778,19.31319444,"EL FACTOR, NAGUA",PROYECTOS,"<img src=""https://doc-04-9s-mymaps.googleusercontent.com/untrusted/hostedimage/n8iup2omsln2bbcql4f65nkp7k/kmtloid9brbr5kp82kmo6epouc/1642520769500/YxVS6hvJdcyzigFQtcUxfDRJRPekVVtH/00867828750103162931/5AIsG_vbcxT7wt5xAam6IM13F-JtOmdVPHiyc4Uzv4rd9fCuNpap1","*Encargado: CapitÃ¡n JosÃ© G. Vasquez Salce, ERD 
*Incidencia de novedades: Baja
*SituaciÃ³n general: Tenemos una gran porciÃ³n de terrenos mÃ¡s de 3,000 mt2. Del Ã¡rea verde de este proyecto.",,https://doc-04-9s-mymaps.googleusercontent.com/untrusted/hostedimage/n8iup2omsln2bbcql4f65nkp7k/kmtloid9brbr5kp82kmo6epouc/1642520769500/YxVS6hvJdcyzigFQtcUxfDRJRPekVVtH/00867828750103162931/5AIsG_vbcxT7wt5xAam6IM13F-JtOmdVPHiyc4Uzv4rd9fCuNpap1jlcMOyacc5,"-69.88752778","19.31319444",./0.png
-69.81961111,19.35083333,"MATANCITAS, NAGUA",PROYECTOS,"<img src=""https://doc-0o-9s-mymaps.googleusercontent.com/untrusted/hostedimage/n8iup2omsln2bbcql4f65nkp7k/3ql53dvs7erkpmbo8mjkrj02p8/1642520769500/YxVS6hvJdcyzigFQtcUxfDRJRPekVVtH/00867828750103162931/5AIsG_va0FpptQ2QErMUuP2LMLgw9aFxGOIgEMhwupSzTe-dzp7dj","*Encargado	CapitÃ¡n JosÃ© G. Vasquez Salce, ERD
*Incidencia de novedades.	Baja 
*SituaciÃ³n general	Sin novedad",,https://doc-0o-9s-mymaps.googleusercontent.com/untrusted/hostedimage/n8iup2omsln2bbcql4f65nkp7k/3ql53dvs7erkpmbo8mjkrj02p8/1642520769500/YxVS6hvJdcyzigFQtcUxfDRJRPekVVtH/00867828750103162931/5AIsG_va0FpptQ2QErMUuP2LMLgw9aFxGOIgEMhwupSzTe-dzp7djOU9iT5wEbu,"-69.81961111","19.35083333",./0.png
-69.86133333,19.18863889,"VILLA LODO, ARENOSO, DUARTE",PROYECTOS,"<img src=""https://doc-04-9s-mymaps.googleusercontent.com/untrusted/hostedimage/n8iup2omsln2bbcql4f65nkp7k/s4ekn3uvcgticki7gsut51pm88/1642520769500/YxVS6hvJdcyzigFQtcUxfDRJRPekVVtH/00867828750103162931/5AIsG_vb3tEkZl9s_qeRl6xkoY1rJr_y3NiRfK4oFr6cC1ov8jH3Z","â€¢	Encargado:	CapitÃ¡n JosÃ© G. Vasquez Salce, ERD
â€¢	Incidencia de novedades:	Baja
â€¢	Apartamentos por entregar:	0
â€¢	SituaciÃ³n general:	Proyecto entregado hace mÃ¡s de dos dÃ©cadas.",,https://doc-04-9s-mymaps.googleusercontent.com/untrusted/hostedimage/n8iup2omsln2bbcql4f65nkp7k/s4ekn3uvcgticki7gsut51pm88/1642520769500/YxVS6hvJdcyzigFQtcUxfDRJRPekVVtH/00867828750103162931/5AIsG_vb3tEkZl9s_qeRl6xkoY1rJr_y3NiRfK4oFr6cC1ov8jH3ZynhzRsUJTa,"-69.86133333","19.18863889",./0.png
-70.20997222,19.12611111,"ANGELINA, COTUÃ",PROYECTOS,"<img src=""https://doc-0s-9s-mymaps.googleusercontent.com/untrusted/hostedimage/n8iup2omsln2bbcql4f65nkp7k/s0rd16tem4hrdtuhqpsr487dio/1642520769500/YxVS6hvJdcyzigFQtcUxfDRJRPekVVtH/00867828750103162931/5AIsG_vYkosyzOdWtYd7uYXkeol_4kGXi6oHoSx-G7od8C6NqpfXd","â€¢	Encargado:	CapitÃ¡n JosÃ© G. Vasquez Salce, ERD
â€¢	Incidencia de novedades:	Baja
â€¢	Apartamentos por entregar:	3
â€¢	SituaciÃ³n general:	Sin novedad",,https://doc-0s-9s-mymaps.googleusercontent.com/untrusted/hostedimage/n8iup2omsln2bbcql4f65nkp7k/s0rd16tem4hrdtuhqpsr487dio/1642520769500/YxVS6hvJdcyzigFQtcUxfDRJRPekVVtH/00867828750103162931/5AIsG_vYkosyzOdWtYd7uYXkeol_4kGXi6oHoSx-G7od8C6NqpfXdbsJ9g71Pou,"-70.20997222","19.12611111",./0.png
-70.50033333,19.38152778,"VILLA SOLEDAD, PROVINCIA ESPAILLAT (MOCA)",PROYECTOS,"<img src=""https://doc-0k-9s-mymaps.googleusercontent.com/untrusted/hostedimage/n8iup2omsln2bbcql4f65nkp7k/h3ketq2b9li3cmb4p56csipqe0/1642520769500/YxVS6hvJdcyzigFQtcUxfDRJRPekVVtH/00867828750103162931/5AIsG_vbg-mIAQbOAwHI7CYxqRk5ZAwJCAZTq3ZztV6gK73Q6G5xo","â€¢	Encargado:	Sgto. Ariel Perez Cubilete, ERD.
â€¢	Incidencia de novedades:	Baja
â€¢	Apartamentos por entregar:	0
â€¢	SituaciÃ³n general:	Buena",,https://doc-0k-9s-mymaps.googleusercontent.com/untrusted/hostedimage/n8iup2omsln2bbcql4f65nkp7k/h3ketq2b9li3cmb4p56csipqe0/1642520769500/YxVS6hvJdcyzigFQtcUxfDRJRPekVVtH/00867828750103162931/5AIsG_vbg-mIAQbOAwHI7CYxqRk5ZAwJCAZTq3ZztV6gK73Q6G5xozyUQsUbKym,"-70.50033333","19.38152778",./0.png
-70.46605556,19.42397222,"LAS LAGUNAS, PROVINCIA ESPAILLAT (MOCA)",PROYECTOS,"<img src=""https://doc-0k-9s-mymaps.googleusercontent.com/untrusted/hostedimage/n8iup2omsln2bbcql4f65nkp7k/qdrafsbrde0g0sk0boqp40n7v4/1642520769500/YxVS6hvJdcyzigFQtcUxfDRJRPekVVtH/00867828750103162931/5AIsG_vYMt3Ri4qKKi7XfQoQ8QACAttcB0jwbD_gaPZeSc9GLYdhJ","â€¢ Encargado: CapitÃ¡n JosÃ© G. Vasquez Salce, ERD
â€¢	Incidencia de novedades: Ninguna 
â€¢	Apartamentos por entregar: Proyecto en construcciÃ³n 
â€¢	SituaciÃ³n general: No seguridad, proyecto construido por contratista privado",,https://doc-0k-9s-mymaps.googleusercontent.com/untrusted/hostedimage/n8iup2omsln2bbcql4f65nkp7k/qdrafsbrde0g0sk0boqp40n7v4/1642520769500/YxVS6hvJdcyzigFQtcUxfDRJRPekVVtH/00867828750103162931/5AIsG_vYMt3Ri4qKKi7XfQoQ8QACAttcB0jwbD_gaPZeSc9GLYdhJa3GbWEjfH9,"-70.46605556","19.42397222",./0.png
-70.42166667,19.37811111,"VILLA MIRALBA, PROVINCIA HERMANAS MIRABAL",PROYECTOS,"<img src=""https://doc-14-9s-mymaps.googleusercontent.com/untrusted/hostedimage/n8iup2omsln2bbcql4f65nkp7k/oif775frqasamc1n5sqsc1oqb0/1642520769500/YxVS6hvJdcyzigFQtcUxfDRJRPekVVtH/00867828750103162931/5AIsG_vYy8NpdYQV1LbLo758X2QuLPuKiAVfR4mhNHtJjl7xdzEDW","â€¢	Encargado: No aplica
â€¢	Incidencia de novedades: Baja 
â€¢	Apartamentos por entregar: No aplica
â€¢	SituaciÃ³n general	Se encuentra en proceso de reevaluaciÃ³n por esta InstituciÃ³n y una ComisiÃ³n Especial del Senado de la R",,https://doc-14-9s-mymaps.googleusercontent.com/untrusted/hostedimage/n8iup2omsln2bbcql4f65nkp7k/oif775frqasamc1n5sqsc1oqb0/1642520769500/YxVS6hvJdcyzigFQtcUxfDRJRPekVVtH/00867828750103162931/5AIsG_vYy8NpdYQV1LbLo758X2QuLPuKiAVfR4mhNHtJjl7xdzEDWFB77mt4D2v,"-70.42166667","19.37811111",./0.png
-70.7319092,19.4182144,"VILLA PROGRESO, SANTIAGO",PROYECTOS,"<img src=""https://doc-0s-9s-mymaps.googleusercontent.com/untrusted/hostedimage/n8iup2omsln2bbcql4f65nkp7k/priu8vcduhtsn9ekr0jatl8av0/1642520769500/YxVS6hvJdcyzigFQtcUxfDRJRPekVVtH/00867828750103162931/5AIsG_vbkitUg48cyv6XrIspUwJ5FwYpvpTfLmqtkZPRn0qaX61Hf","â€¢	Encargado: CapitÃ¡n Valenzuela Batista Freddy, ERD
â€¢	Incidencia de novedades: Baja
â€¢	Apartamentos por entregar: 0Â 
â€¢	SituaciÃ³n general: Un (1) Lote de terreno con una dimensiÃ³n de 12,000 Mt.2, aproximadamente con una",,https://doc-0s-9s-mymaps.googleusercontent.com/untrusted/hostedimage/n8iup2omsln2bbcql4f65nkp7k/priu8vcduhtsn9ekr0jatl8av0/1642520769500/YxVS6hvJdcyzigFQtcUxfDRJRPekVVtH/00867828750103162931/5AIsG_vbkitUg48cyv6XrIspUwJ5FwYpvpTfLmqtkZPRn0qaX61HfqJXMZ5iErh,"-70.7319092","19.4182144",./0.png
-70.78352778,19.53027778,"VILLA GONZALEZ, SANTIAGO",PROYECTOS,"<img src=""https://doc-10-9s-mymaps.googleusercontent.com/untrusted/hostedimage/n8iup2omsln2bbcql4f65nkp7k/06qn0hv28citlho37ik8c77tt8/1642520769500/YxVS6hvJdcyzigFQtcUxfDRJRPekVVtH/00867828750103162931/5AIsG_vaiFzJSY__zZCLpw0d2PmMa6KMwfR_o2iq2dlI_pyOi4zxk","â€¢	Encargado: CapitÃ¡n Valenzuela Batista Freddy, ERD
â€¢	Incidencia de novedades: Baja
â€¢	Apartamentos por entregar: 0
â€¢	SituaciÃ³n general: Un (01) Lote de terreno con una dimensiÃ³n de 10,000 Mt.2, aproximadamente con una par",,https://doc-10-9s-mymaps.googleusercontent.com/untrusted/hostedimage/n8iup2omsln2bbcql4f65nkp7k/06qn0hv28citlho37ik8c77tt8/1642520769500/YxVS6hvJdcyzigFQtcUxfDRJRPekVVtH/00867828750103162931/5AIsG_vaiFzJSY__zZCLpw0d2PmMa6KMwfR_o2iq2dlI_pyOi4zxkrYi64p51bd,"-70.78352778","19.53027778",./0.png
-70.21630556,18.26761111,"VILLA PROGRESO NIZAO, BANÃ",PROYECTOS,"<img src=""https://doc-0g-9s-mymaps.googleusercontent.com/untrusted/hostedimage/n8iup2omsln2bbcql4f65nkp7k/b0rc9h0atddd1mfnkpkcbfitak/1642520769500/YxVS6hvJdcyzigFQtcUxfDRJRPekVVtH/00867828750103162931/5AIsG_vanXJbNBF2PB5Zgg-_OztdFqvyb4Wr8XvI14UwGxV5r036K","â€¢	Encargado: 2do Tte Peguero Del Villar ERD
â€¢	Incidencia de novedades: Baja
â€¢	Apartamentos por entregar: Tenemos tres apartamentos que no han sido ocupados por los beneficiarios
â€¢	SituaciÃ³n general: Este proyecto fue entregado",,https://doc-0g-9s-mymaps.googleusercontent.com/untrusted/hostedimage/n8iup2omsln2bbcql4f65nkp7k/b0rc9h0atddd1mfnkpkcbfitak/1642520769500/YxVS6hvJdcyzigFQtcUxfDRJRPekVVtH/00867828750103162931/5AIsG_vanXJbNBF2PB5Zgg-_OztdFqvyb4Wr8XvI14UwGxV5r036Keyr4H7Jm9e,"-70.21630556","18.26761111",./0.png
-71.10466667,18.23358333,VILLA PROGRESO BARAHONA,PROYECTOS,"<img src=""https://doc-04-9s-mymaps.googleusercontent.com/untrusted/hostedimage/n8iup2omsln2bbcql4f65nkp7k/48miscd0fmcde91vsstakend6o/1642520769500/YxVS6hvJdcyzigFQtcUxfDRJRPekVVtH/00867828750103162931/5AIsG_vZixJxlo1PSbVbRuF8MOF9Ru1vUUceFnzNlVjyd2_wXwBI_","â€¢	Encargado: CapitÃ¡n Ronny Matos Segura, ERD.
â€¢	Incidencia de novedades: Baja
â€¢	Apartamentos por entregar: 21 apartamentos sin ocupar
â€¢	SituaciÃ³n general: El proyecto fue entregado en agosto del presente aÃ±o y hasta ahora",,https://doc-04-9s-mymaps.googleusercontent.com/untrusted/hostedimage/n8iup2omsln2bbcql4f65nkp7k/48miscd0fmcde91vsstakend6o/1642520769500/YxVS6hvJdcyzigFQtcUxfDRJRPekVVtH/00867828750103162931/5AIsG_vZixJxlo1PSbVbRuF8MOF9Ru1vUUceFnzNlVjyd2_wXwBI_65Gm-enujo,"-71.10466667","18.23358333",./0.png
-70.77386111,19.52536111,VILLA GONZÃLEZ SANTIAGO,PROYECTOS,"<img src=""https://doc-0k-9s-mymaps.googleusercontent.com/untrusted/hostedimage/n8iup2omsln2bbcql4f65nkp7k/nu290hrn4tm2oupvm9rmdqmopg/1642520769500/YxVS6hvJdcyzigFQtcUxfDRJRPekVVtH/00867828750103162931/5AIsG_vaY3CRMcAmlsJFg2fS3HmDBAgdP9KNqRf_UoBM2KAOoGL2j","â€¢	Encargado:	CapitÃ¡n Freddy Valenzuela Batista, ERD.
â€¢	Incidencia de novedades:	Media
â€¢	Infraestructura:	 Entregado completo
â€¢	SituaciÃ³n general:	MÃºltiples construcciones ilegales, que alteran el proyecto original.",,https://doc-0k-9s-mymaps.googleusercontent.com/untrusted/hostedimage/n8iup2omsln2bbcql4f65nkp7k/nu290hrn4tm2oupvm9rmdqmopg/1642520769500/YxVS6hvJdcyzigFQtcUxfDRJRPekVVtH/00867828750103162931/5AIsG_vaY3CRMcAmlsJFg2fS3HmDBAgdP9KNqRf_UoBM2KAOoGL2j5IUgYI0WVA,"-70.77386111","19.52536111",./0.png
-71.63591667,19.84444444,MONTE CRISTI EN LAS COLINAS,PROYECTOS,"<img src=""https://doc-0g-9s-mymaps.googleusercontent.com/untrusted/hostedimage/n8iup2omsln2bbcql4f65nkp7k/lk04b3686i0i8idmkssrkr3tt0/1642520769500/YxVS6hvJdcyzigFQtcUxfDRJRPekVVtH/00867828750103162931/5AIsG_vaux8z1Cd_troU3VkFOHEkNYReuFUlfZTQ59BBfnyxbQyaY","â€¢	Encargado:	No aplica
â€¢	Incidencia de novedades:	Baja
â€¢	Apartamentos por entregar:	Entregado completo
â€¢	SituaciÃ³n general:	Este proyecto fue transferido de Bienes Nacionales a nuestra instituciÃ³n.",,https://doc-0g-9s-mymaps.googleusercontent.com/untrusted/hostedimage/n8iup2omsln2bbcql4f65nkp7k/lk04b3686i0i8idmkssrkr3tt0/1642520769500/YxVS6hvJdcyzigFQtcUxfDRJRPekVVtH/00867828750103162931/5AIsG_vaux8z1Cd_troU3VkFOHEkNYReuFUlfZTQ59BBfnyxbQyaYasL3ic0-TP,"-71.63591667","19.84444444",./0.png
-71.10866667,19.55977778,VILLA PROGRESO MAO,PROYECTOS,"<img src=""https://doc-08-9s-mymaps.googleusercontent.com/untrusted/hostedimage/n8iup2omsln2bbcql4f65nkp7k/4jhdsi0t98g492r49o50sh7d7g/1642520769500/YxVS6hvJdcyzigFQtcUxfDRJRPekVVtH/00867828750103162931/5AIsG_vZRzqvockdS5v7s4WtfOI5d8urRAh9Goe8DSvibEROJdDi4","â€¢	Encargado:	No aplica
â€¢	Incidencia de novedades:	Media
â€¢	Apartamentos por entregar:	Entregado completo
â€¢	SituaciÃ³n general:	Diversas construcciones ilegales que alteran el diseÃ±o original de este proyecto.",,https://doc-08-9s-mymaps.googleusercontent.com/untrusted/hostedimage/n8iup2omsln2bbcql4f65nkp7k/4jhdsi0t98g492r49o50sh7d7g/1642520769500/YxVS6hvJdcyzigFQtcUxfDRJRPekVVtH/00867828750103162931/5AIsG_vZRzqvockdS5v7s4WtfOI5d8urRAh9Goe8DSvibEROJdDi4kWbb-1HIpE,"-71.10866667","19.55977778",./0.png
-71.32669444,19.49283333,VILLA PROGRESO SANTIAGO RODRIGUEZ,PROYECTOS,"<img src=""https://doc-08-9s-mymaps.googleusercontent.com/untrusted/hostedimage/n8iup2omsln2bbcql4f65nkp7k/liab492g0889a6m4aut93ccfrc/1642520769500/YxVS6hvJdcyzigFQtcUxfDRJRPekVVtH/00867828750103162931/5AIsG_vZiMK0n3vOEUMmil324YSQLYareUnOfsWV-XKiylaWvTxLx","â€¢	Encargado:	CapitÃ¡n Arturo Villa Marte, ERD
â€¢	Incidencia de novedades:	 Baja
â€¢	Apartamentos por entregar:	Todos
â€¢	SituaciÃ³n general:	Este proyecto estÃ¡ en un 90 por ciento de su construcciÃ³n, el cual estÃ¡ para entr",,https://doc-08-9s-mymaps.googleusercontent.com/untrusted/hostedimage/n8iup2omsln2bbcql4f65nkp7k/liab492g0889a6m4aut93ccfrc/1642520769500/YxVS6hvJdcyzigFQtcUxfDRJRPekVVtH/00867828750103162931/5AIsG_vZiMK0n3vOEUMmil324YSQLYareUnOfsWV-XKiylaWvTxLx7lq-XglnTY,"-71.32669444","19.49283333",./0.png
-71.50713889,19.65411111,VILLA PROGRESO LAS MATAS DE SANTA CRUZ,PROYECTOS,"<img src=""https://doc-14-9s-mymaps.googleusercontent.com/untrusted/hostedimage/n8iup2omsln2bbcql4f65nkp7k/99eps59sun15vlvp007upnhfks/1642520769500/YxVS6hvJdcyzigFQtcUxfDRJRPekVVtH/00867828750103162931/5AIsG_vb6jDyVfJLkUPkQ2RK198ubNLZX76Y-n94I2EhbGdxJfuT1","â€¢	Encargado:	CapitÃ¡n Arturo Villa Marte, ERD
â€¢	Incidencia de novedades:	Baja
â€¢	Apartamentos por entregar:	Todos 
â€¢	SituaciÃ³n general:	Este proyecto estÃ¡ en un 90 por ciento de su construcciÃ³n, el cual estÃ¡ para entr",,https://doc-14-9s-mymaps.googleusercontent.com/untrusted/hostedimage/n8iup2omsln2bbcql4f65nkp7k/99eps59sun15vlvp007upnhfks/1642520769500/YxVS6hvJdcyzigFQtcUxfDRJRPekVVtH/00867828750103162931/5AIsG_vb6jDyVfJLkUPkQ2RK198ubNLZX76Y-n94I2EhbGdxJfuT1TKCi7R08Px,"-71.50713889","19.65411111",./0.png
-71.60844444,18.53266667,"VILLA PROGRESO LOS RIOS BAHORUCO, NEYBA",PROYECTOS,"<img src=""https://doc-08-9s-mymaps.googleusercontent.com/untrusted/hostedimage/n8iup2omsln2bbcql4f65nkp7k/26bi9q6dgcfehckr5ha7ct7qgk/1642520769500/YxVS6hvJdcyzigFQtcUxfDRJRPekVVtH/00867828750103162931/5AIsG_vYRgWBtATGEH9ilKwSHIhhallyWDDQJWHX3X5aO-FSkBSnP","â€¢	Encargado:	1er. Tte. Roger Carvajal Matos, ERD.
â€¢	Incidencia de novedades.	Baja
â€¢	Apartamentos por entregar:	Tres (3) apartamentos que no han sido asignados o reclamados. Este proyecto fue entregado sin terminar
â€¢	SituaciÃ³n g",,https://doc-08-9s-mymaps.googleusercontent.com/untrusted/hostedimage/n8iup2omsln2bbcql4f65nkp7k/26bi9q6dgcfehckr5ha7ct7qgk/1642520769500/YxVS6hvJdcyzigFQtcUxfDRJRPekVVtH/00867828750103162931/5AIsG_vYRgWBtATGEH9ilKwSHIhhallyWDDQJWHX3X5aO-FSkBSnPDzjMFyTXda,"-71.60844444","18.53266667",./0.png
-70.59791667,19.73013889,VILLA PROGRESO PANCHO MATEO,PROYECTOS,"<img src=""https://doc-0s-9s-mymaps.googleusercontent.com/untrusted/hostedimage/n8iup2omsln2bbcql4f65nkp7k/2r2cjj0clii1or4i5bu7379o5s/1642520769500/YxVS6hvJdcyzigFQtcUxfDRJRPekVVtH/00867828750103162931/5AIsG_vbtFo0KI_qyWPE-eK8JZBjxcqsQkJLHgXQsC3al1F794Tj1","â€¢	Encargado:	No tenemos
â€¢	Incidencia de novedades:	Baja
â€¢	Apartamentos por entregar:	0
â€¢	SituaciÃ³n general:	Dos construcciones ilegales, un furgÃ³n y un local comercial (colmado). El Ã¡rea verde de este proyecto consta apro",,https://doc-0s-9s-mymaps.googleusercontent.com/untrusted/hostedimage/n8iup2omsln2bbcql4f65nkp7k/2r2cjj0clii1or4i5bu7379o5s/1642520769500/YxVS6hvJdcyzigFQtcUxfDRJRPekVVtH/00867828750103162931/5AIsG_vbtFo0KI_qyWPE-eK8JZBjxcqsQkJLHgXQsC3al1F794Tj1jWzZ5Yt3yG,"-70.59791667","19.73013889",./0.png
-70.32758333,19.2335,"VILLA AGUAYO, PROVINCIA DUARTE",PROYECTOS,"<img src=""https://doc-0c-9s-mymaps.googleusercontent.com/untrusted/hostedimage/n8iup2omsln2bbcql4f65nkp7k/sqel65pqni2lm47jkkf9e6s2j8/1642520769500/YxVS6hvJdcyzigFQtcUxfDRJRPekVVtH/00867828750103162931/5AIsG_vb2w0HkRrYhz5pATe11ofBHjfgqPjWJl4lJG46cTtjRw8n9","â€¢	Encargado:	CapitÃ¡n JosÃ© G. Vasquez Salce, E.R.D.
â€¢	Incidencia de novedades:	Baja
â€¢	Apartamentos por entregar:	
â€¢	SituaciÃ³n general:	Sin novedad",,https://doc-0c-9s-mymaps.googleusercontent.com/untrusted/hostedimage/n8iup2omsln2bbcql4f65nkp7k/sqel65pqni2lm47jkkf9e6s2j8/1642520769500/YxVS6hvJdcyzigFQtcUxfDRJRPekVVtH/00867828750103162931/5AIsG_vb2w0HkRrYhz5pATe11ofBHjfgqPjWJl4lJG46cTtjRw8n93UU8DhXEl6,"-70.32758333","19.2335",./0.png
-71.54605556,18.38586111,VILLA PROGRESO DUVERGE,PROYECTOS,"<img src=""https://doc-0s-9s-mymaps.googleusercontent.com/untrusted/hostedimage/n8iup2omsln2bbcql4f65nkp7k/nrp41n3enr5bf1q364anhfmlhc/1642520769500/YxVS6hvJdcyzigFQtcUxfDRJRPekVVtH/00867828750103162931/5AIsG_vbKgawcjZAS1q2msNXTAO8kkO8DE95rZC5coRQoFowTpdVy","*Encargado: CapitÃ¡n Rocha Garcia Brederlin ERD
*Novedad: mediaÂ 
*Generalidades: algunos propietarios han construido, pequeÃ±as infraestructuras como soportes de tinacos y anexos",,https://doc-0s-9s-mymaps.googleusercontent.com/untrusted/hostedimage/n8iup2omsln2bbcql4f65nkp7k/nrp41n3enr5bf1q364anhfmlhc/1642520769500/YxVS6hvJdcyzigFQtcUxfDRJRPekVVtH/00867828750103162931/5AIsG_vbKgawcjZAS1q2msNXTAO8kkO8DE95rZC5coRQoFowTpdVybjFzEDrDPb,"-71.54605556","18.38586111",./0.png
-71.7714479,18.4277665,VILLA PROGRESO EL LIMON DE JIMANI,PROYECTOS,"<img src=""https://doc-0o-9s-mymaps.googleusercontent.com/untrusted/hostedimage/n8iup2omsln2bbcql4f65nkp7k/331a94vtkrhh9592cc2h0n9fp0/1642520769500/YxVS6hvJdcyzigFQtcUxfDRJRPekVVtH/00867828750103162931/5AIsG_va1Cvz4g9rqpkqhCf7kckgbJPrRFPAls33FpTx5v37ymaIj","*Encargado: CapitÃ¡n Rocha Garcia Brederlin ERD
*Novedad: Baja
*Generalidades:",,https://doc-0o-9s-mymaps.googleusercontent.com/untrusted/hostedimage/n8iup2omsln2bbcql4f65nkp7k/331a94vtkrhh9592cc2h0n9fp0/1642520769500/YxVS6hvJdcyzigFQtcUxfDRJRPekVVtH/00867828750103162931/5AIsG_va1Cvz4g9rqpkqhCf7kckgbJPrRFPAls33FpTx5v37ymaIj-cZh5dnwwJ,"-71.7714479","18.4277665",./0.png
-71.70236111,19.57888889,VILLA PROGRESO DAJABON,PROYECTOS,"<img src=""https://doc-08-9s-mymaps.googleusercontent.com/untrusted/hostedimage/n8iup2omsln2bbcql4f65nkp7k/fg1337shnjmipnjrf0kb6lh6j8/1642520769500/YxVS6hvJdcyzigFQtcUxfDRJRPekVVtH/00867828750103162931/5AIsG_vYffVnviMWOcJo72V9FUbyijQJr5AvkUvglT4ETiI49qlkX","â€¢	Encargado:	CapitÃ¡n Arturo Villa Marte, ERD
â€¢	Incidencia de novedades:	Alta 
â€¢	Apartamentos por entregar:	Entregado completo 
â€¢	SituaciÃ³n general:	Este proyecto tiene una alta incidencia de novedades ya que sus franjas est�",,https://doc-08-9s-mymaps.googleusercontent.com/untrusted/hostedimage/n8iup2omsln2bbcql4f65nkp7k/fg1337shnjmipnjrf0kb6lh6j8/1642520769500/YxVS6hvJdcyzigFQtcUxfDRJRPekVVtH/00867828750103162931/5AIsG_vYffVnviMWOcJo72V9FUbyijQJr5AvkUvglT4ETiI49qlkXUvCTl8-IFM,"-71.70236111","19.57888889",./0.png
-69.2323483,18.7370741,"VILLA PROGRESO LOS HATILLOS 1 Y 2, HATO MAYOR",PROYECTOS,"<img src=""https://doc-0o-9s-mymaps.googleusercontent.com/untrusted/hostedimage/n8iup2omsln2bbcql4f65nkp7k/4spgj1pgk07m85vsdj7bf7gbrc/1642520769500/YxVS6hvJdcyzigFQtcUxfDRJRPekVVtH/00867828750103162931/5AIsG_vYCfj4j-1aul-GHhdNQMIik92HHiJCQjAq3TGGV8vKqnsoc","â€¢ Encargado:Â No aplica
â€¢ Incidencia de novedades: Baja
â€¢ SituaciÃ³n general: Este proyecto fue entregado en el aÃ±o 2016.",,https://doc-0o-9s-mymaps.googleusercontent.com/untrusted/hostedimage/n8iup2omsln2bbcql4f65nkp7k/4spgj1pgk07m85vsdj7bf7gbrc/1642520769500/YxVS6hvJdcyzigFQtcUxfDRJRPekVVtH/00867828750103162931/5AIsG_vYCfj4j-1aul-GHhdNQMIik92HHiJCQjAq3TGGV8vKqnsoc05u7SGBqx4,"-69.2323483","18.7370741",./0.png
-70.42991667,18.99511111,PROYECTO JAYACO BONAO,PROYECTOS,"<img src=""https://doc-0k-9s-mymaps.googleusercontent.com/untrusted/hostedimage/n8iup2omsln2bbcql4f65nkp7k/6shfstrvur5mpk3herol2cvgi8/1642520769500/YxVS6hvJdcyzigFQtcUxfDRJRPekVVtH/00867828750103162931/5AIsG_vbPn4vR9uxmavQr15AmRjCDJfgfCMX-hYUA9NZcQO1TJiSW","112 partamentos, terrenos donados por pelotero
Juan Carlos cruz",,https://doc-0k-9s-mymaps.googleusercontent.com/untrusted/hostedimage/n8iup2omsln2bbcql4f65nkp7k/6shfstrvur5mpk3herol2cvgi8/1642520769500/YxVS6hvJdcyzigFQtcUxfDRJRPekVVtH/00867828750103162931/5AIsG_vbPn4vR9uxmavQr15AmRjCDJfgfCMX-hYUA9NZcQO1TJiSWDhv7lnXSZZ,"-70.42991667","18.99511111",./0.png
-70.41627778,18.95127778,VILLA PROGRESO BONAO,PROYECTOS,"<img src=""https://doc-0o-9s-mymaps.googleusercontent.com/untrusted/hostedimage/n8iup2omsln2bbcql4f65nkp7k/m1ifkbftvpv1j8avp3fkvp204s/1642520769500/YxVS6hvJdcyzigFQtcUxfDRJRPekVVtH/00867828750103162931/5AIsG_vbN13R878u8HMan8gZXn4KDL8NTLsNLwaoGrpnlKoE_JeIS",,,https://doc-0o-9s-mymaps.googleusercontent.com/untrusted/hostedimage/n8iup2omsln2bbcql4f65nkp7k/m1ifkbftvpv1j8avp3fkvp204s/1642520769500/YxVS6hvJdcyzigFQtcUxfDRJRPekVVtH/00867828750103162931/5AIsG_vbN13R878u8HMan8gZXn4KDL8NTLsNLwaoGrpnlKoE_JeIS3HdyLMMNrG,"-70.41627778","18.95127778",./0.png
-70.2655,18.7885,"VILLA PROGRESO LA CUMBRE, VILLA ALTAGRACIA",PROYECTOS,"<img src=""https://doc-14-9s-mymaps.googleusercontent.com/untrusted/hostedimage/n8iup2omsln2bbcql4f65nkp7k/vsf2rr721t9ctc4sihcc1qia14/1642520769500/YxVS6hvJdcyzigFQtcUxfDRJRPekVVtH/00867828750103162931/5AIsG_vZTfTzFqkuWnyZZzt5uYopJ2enQfDH9ZQyk-cYV8UmEAsmP",,,https://doc-14-9s-mymaps.googleusercontent.com/untrusted/hostedimage/n8iup2omsln2bbcql4f65nkp7k/vsf2rr721t9ctc4sihcc1qia14/1642520769500/YxVS6hvJdcyzigFQtcUxfDRJRPekVVtH/00867828750103162931/5AIsG_vZTfTzFqkuWnyZZzt5uYopJ2enQfDH9ZQyk-cYV8UmEAsmPMpgoZ6-Y0-,"-70.2655","18.7885",./0.png
-69.9482442,18.5399044,VILLA ESPERANZA COLINAS DEL ARROYO 2,PROYECTOS,"<img src=""https://doc-0c-9s-mymaps.googleusercontent.com/untrusted/hostedimage/n8iup2omsln2bbcql4f65nkp7k/tcqcqqkqkv2n2pldissfbqk9as/1642520769500/YxVS6hvJdcyzigFQtcUxfDRJRPekVVtH/00867828750103162931/5AIsG_vYmqAJH8ZXq4lOscfTfzZZWX4akYzdyw1qkjpnAxxyQxDsS","7 Edificios de Apartamento, 56 apartamentos","* Encargado de seguridad: Sgt Mayor Garcia Perez ERDÂ  Â  Â  Â  Â  Â  Â  Â  Â  Â  Â  Â  Â  Â  Â  Â  Â  Â  Â  Â  Â  Â  Â â€¢ Incidencia de novedades: Baja
â€¢ Apartamentos por entregar: 55
â€¢ Situ",https://doc-0c-9s-mymaps.googleusercontent.com/untrusted/hostedimage/n8iup2omsln2bbcql4f65nkp7k/tcqcqqkqkv2n2pldissfbqk9as/1642520769500/YxVS6hvJdcyzigFQtcUxfDRJRPekVVtH/00867828750103162931/5AIsG_vYmqAJH8ZXq4lOscfTfzZZWX4akYzdyw1qkjpnAxxyQxDsSEvfnNtQx9G,"-69.9482442","18.5399044",./0.png
-69.8222841,18.5122275,INVIVIENDA SANTO DOMINGO ESTE,PROYECTOS,"<img src=""https://doc-14-9s-mymaps.googleusercontent.com/untrusted/hostedimage/n8iup2omsln2bbcql4f65nkp7k/j4iac4gj56otj7m73dge7ub0fc/1642520769500/YxVS6hvJdcyzigFQtcUxfDRJRPekVVtH/00867828750103162931/5AIsG_vZHeVi1Wfw7PkkGpGMKNyjS-X4XBoL0Tg3DkO71BD8_kgzy",Proyecto de la dÃ©cada de los 1980,"*Encargado: Capitan Marte Ramirez Rigoberto
*incidencia: Alta
*Apartamentos por asignar: Pendiente del resultado del ultimo levantamiento por la DS",https://doc-14-9s-mymaps.googleusercontent.com/untrusted/hostedimage/n8iup2omsln2bbcql4f65nkp7k/j4iac4gj56otj7m73dge7ub0fc/1642520769500/YxVS6hvJdcyzigFQtcUxfDRJRPekVVtH/00867828750103162931/5AIsG_vZHeVi1Wfw7PkkGpGMKNyjS-X4XBoL0Tg3DkO71BD8_kgzyi3Jnhprlzd,"-69.8222841","18.5122275",./0.png
-71.696452,18.8760387,VILLA PROGRESO ELIAS PIÃ‘A,PROYECTOS,"<img src=""https://doc-08-9s-mymaps.googleusercontent.com/untrusted/hostedimage/n8iup2omsln2bbcql4f65nkp7k/n5lehannro02mi1s8cc6c13np4/1642520769500/YxVS6hvJdcyzigFQtcUxfDRJRPekVVtH/00867828750103162931/5AIsG_vbrGSERh_x07vKGe46Swtpp_4Fmisf75_mLvs8uxBtMrAXG","*Encargado de Seguridad: NA
*Novedad:baja",,https://doc-08-9s-mymaps.googleusercontent.com/untrusted/hostedimage/n8iup2omsln2bbcql4f65nkp7k/n5lehannro02mi1s8cc6c13np4/1642520769500/YxVS6hvJdcyzigFQtcUxfDRJRPekVVtH/00867828750103162931/5AIsG_vbrGSERh_x07vKGe46Swtpp_4Fmisf75_mLvs8uxBtMrAXGPKdAaa9qjj,"-71.696452","18.8760387",./0.png
-70.775,18.39958333,PROYECTO LAS LOMAS DE AZUA,PROYECTOS,"<img src=""https://doc-0g-9s-mymaps.googleusercontent.com/untrusted/hostedimage/n8iup2omsln2bbcql4f65nkp7k/lfvpip7arls2cetu00pbp9mpdg/1642520769500/YxVS6hvJdcyzigFQtcUxfDRJRPekVVtH/00867828750103162931/5AIsG_vaW-at_5_Y3slLS-C5ENq9UOVgKnBx9axU7ejYyKXJYEmCa",,,https://doc-0g-9s-mymaps.googleusercontent.com/untrusted/hostedimage/n8iup2omsln2bbcql4f65nkp7k/lfvpip7arls2cetu00pbp9mpdg/1642520769500/YxVS6hvJdcyzigFQtcUxfDRJRPekVVtH/00867828750103162931/5AIsG_vaW-at_5_Y3slLS-C5ENq9UOVgKnBx9axU7ejYyKXJYEmCaTMPA2Orn-d,"-70.775","18.39958333",./0.png
-70.7505,18.43269444,PROYECTO LOS CLAVELLINES AZUA,PROYECTOS,"<img src=""https://doc-00-9s-mymaps.googleusercontent.com/untrusted/hostedimage/n8iup2omsln2bbcql4f65nkp7k/ps74o3buf2viiebp6keqa7idk8/1642520769500/YxVS6hvJdcyzigFQtcUxfDRJRPekVVtH/00867828750103162931/5AIsG_vb0aC1M7y-9FzJmxdW4v5roCa2Zdqozu4mjjhwGzK0KMkq4",,,https://doc-00-9s-mymaps.googleusercontent.com/untrusted/hostedimage/n8iup2omsln2bbcql4f65nkp7k/ps74o3buf2viiebp6keqa7idk8/1642520769500/YxVS6hvJdcyzigFQtcUxfDRJRPekVVtH/00867828750103162931/5AIsG_vb0aC1M7y-9FzJmxdW4v5roCa2Zdqozu4mjjhwGzK0KMkq4tOQiBxDg8S,"-70.7505","18.43269444",./0.png
-68.98966667,18.42861111,OFICINA DE COBRO REGIONAL ESTE ( LA ROMANA),INVI | OFICINAS,"<img src=""https://doc-0s-9s-mymaps.googleusercontent.com/untrusted/hostedimage/n8iup2omsln2bbcql4f65nkp7k/9bk6ldu8o8k7ub15cjtsg6sg6g/1642520769500/YxVS6hvJdcyzigFQtcUxfDRJRPekVVtH/00867828750103162931/5AIsG_vYzs3sSHPhbCagfTAlVJ-oadl6XAaKr4MqVZVVQps-B7s9r",,,https://doc-0s-9s-mymaps.googleusercontent.com/untrusted/hostedimage/n8iup2omsln2bbcql4f65nkp7k/9bk6ldu8o8k7ub15cjtsg6sg6g/1642520769500/YxVS6hvJdcyzigFQtcUxfDRJRPekVVtH/00867828750103162931/5AIsG_vYzs3sSHPhbCagfTAlVJ-oadl6XAaKr4MqVZVVQps-B7s9rzw15GHNfZa,"-68.98966667","18.42861111",./0.png
-70.68647222,19.46016667,REGIONAL SANTIAGO,INVI | OFICINAS,"<img src=""https://doc-00-9s-mymaps.googleusercontent.com/untrusted/hostedimage/n8iup2omsln2bbcql4f65nkp7k/dibab32jto9ea4lia40ltqheus/1642520769500/YxVS6hvJdcyzigFQtcUxfDRJRPekVVtH/00867828750103162931/5AIsG_vbV_yGRxjrhBVqU8WKo6ruKyvJEIVKHdzIz5aXRDy-6ZPm9",,,https://doc-00-9s-mymaps.googleusercontent.com/untrusted/hostedimage/n8iup2omsln2bbcql4f65nkp7k/dibab32jto9ea4lia40ltqheus/1642520769500/YxVS6hvJdcyzigFQtcUxfDRJRPekVVtH/00867828750103162931/5AIsG_vbV_yGRxjrhBVqU8WKo6ruKyvJEIVKHdzIz5aXRDy-6ZPm9v7ThJRp2Dr,"-70.68647222","19.46016667",./0.png
-70.68866667,19.43272222,"ESTAFETA INFORMATIVA Y VILLA OLIMPICA, SANTIAGO",INVI | OFICINAS,"<img src=""https://doc-08-9s-mymaps.googleusercontent.com/untrusted/hostedimage/n8iup2omsln2bbcql4f65nkp7k/6peesdrgc3jt81j5ivv04393d8/1642520769500/YxVS6hvJdcyzigFQtcUxfDRJRPekVVtH/00867828750103162931/5AIsG_vb_xG8KANLo-AgA1dY5-80e2mKPO7nmGVcsIUAudayCs7Ll",,,https://doc-08-9s-mymaps.googleusercontent.com/untrusted/hostedimage/n8iup2omsln2bbcql4f65nkp7k/6peesdrgc3jt81j5ivv04393d8/1642520769500/YxVS6hvJdcyzigFQtcUxfDRJRPekVVtH/00867828750103162931/5AIsG_vb_xG8KANLo-AgA1dY5-80e2mKPO7nmGVcsIUAudayCs7LlnK_MJKCQHo,"-70.68866667","19.43272222",./0.png
-71.22741667,18.80136111,ESTAFETA DE PAGO INVI SANJUAN,INVI | OFICINAS,"<img src=""https://doc-0s-9s-mymaps.googleusercontent.com/untrusted/hostedimage/n8iup2omsln2bbcql4f65nkp7k/2td5459ai0plh65cspea4gfb8o/1642520769500/YxVS6hvJdcyzigFQtcUxfDRJRPekVVtH/00867828750103162931/5AIsG_vaxKMe0vzJHLOWgPwtu2BVpU8dtvcewOxldErJObUG8Rz-w",,,https://doc-0s-9s-mymaps.googleusercontent.com/untrusted/hostedimage/n8iup2omsln2bbcql4f65nkp7k/2td5459ai0plh65cspea4gfb8o/1642520769500/YxVS6hvJdcyzigFQtcUxfDRJRPekVVtH/00867828750103162931/5AIsG_vaxKMe0vzJHLOWgPwtu2BVpU8dtvcewOxldErJObUG8Rz-wcQ-loNr-Ca,"-71.22741667","18.80136111",./0.png
-70.328,18.27844444,"ESTAFETA DE PAGO INVI, PERAVIA, BANÃ",INVI | OFICINAS,"<img src=""https://doc-04-9s-mymaps.googleusercontent.com/untrusted/hostedimage/n8iup2omsln2bbcql4f65nkp7k/s0phgs4nmfjd944jfjdmuijmt4/1642520769500/YxVS6hvJdcyzigFQtcUxfDRJRPekVVtH/00867828750103162931/5AIsG_vbku5EruQN-BzFa2uMyZijhK79vO_oBG_MPf3P_PIeFpFht",,,https://doc-04-9s-mymaps.googleusercontent.com/untrusted/hostedimage/n8iup2omsln2bbcql4f65nkp7k/s0phgs4nmfjd944jfjdmuijmt4/1642520769500/YxVS6hvJdcyzigFQtcUxfDRJRPekVVtH/00867828750103162931/5AIsG_vbku5EruQN-BzFa2uMyZijhK79vO_oBG_MPf3P_PIeFpFhtIBVdUlojSM,"-70.328","18.27844444",./0.png
-69.9217048,18.4669548,SEDE CENTRAL,INVI | OFICINAS,"<img src=""https://doc-10-9s-mymaps.googleusercontent.com/untrusted/hostedimage/n8iup2omsln2bbcql4f65nkp7k/sdb6fdpni5alm5udpdd6eo30vo/1642520769500/YxVS6hvJdcyzigFQtcUxfDRJRPekVVtH/00867828750103162931/5AIsG_vYTOg6XiY7FwbZ818PAkti1cwC-uBlp_iwj1Q7iap4RV7m2",,,https://doc-10-9s-mymaps.googleusercontent.com/untrusted/hostedimage/n8iup2omsln2bbcql4f65nkp7k/sdb6fdpni5alm5udpdd6eo30vo/1642520769500/YxVS6hvJdcyzigFQtcUxfDRJRPekVVtH/00867828750103162931/5AIsG_vYTOg6XiY7FwbZ818PAkti1cwC-uBlp_iwj1Q7iap4RV7m2f3HkuaG8kq,"-69.9217048","18.4669548",./0.png
-69.82569444,18.51161111,"ESTAFETA DE PAGO INVI, INVIVIENDA",INVI | OFICINAS,"<img src=""https://doc-0o-9s-mymaps.googleusercontent.com/untrusted/hostedimage/n8iup2omsln2bbcql4f65nkp7k/bgm2890rs0ljoreto6d5f16eks/1642520769500/YxVS6hvJdcyzigFQtcUxfDRJRPekVVtH/00867828750103162931/5AIsG_vZqrtK_QJBpfukdigngUVt7q3Am61XhgADmGlstxPAgzQev",,,https://doc-0o-9s-mymaps.googleusercontent.com/untrusted/hostedimage/n8iup2omsln2bbcql4f65nkp7k/bgm2890rs0ljoreto6d5f16eks/1642520769500/YxVS6hvJdcyzigFQtcUxfDRJRPekVVtH/00867828750103162931/5AIsG_vZqrtK_QJBpfukdigngUVt7q3Am61XhgADmGlstxPAgzQeviQpkXPTQmY,"-69.82569444","18.51161111",./0.png
-69.04488889,18.75819444,"VILLA GUERRERO, (EL SEYBO)",FRANJAS OCUPADAS,"<img src=""https://doc-0s-9s-mymaps.googleusercontent.com/untrusted/hostedimage/n8iup2omsln2bbcql4f65nkp7k/gs6lkcfujdfu03nfq1kj3pp1io/1642520769500/YxVS6hvJdcyzigFQtcUxfDRJRPekVVtH/00867828750103162931/5AIsG_vZZ5V4Zj4pNHnHpKuTV_bzP8G1QWgPPr2cykKuZRkso6cs3",,,https://doc-0s-9s-mymaps.googleusercontent.com/untrusted/hostedimage/n8iup2omsln2bbcql4f65nkp7k/gs6lkcfujdfu03nfq1kj3pp1io/1642520769500/YxVS6hvJdcyzigFQtcUxfDRJRPekVVtH/00867828750103162931/5AIsG_vZZ5V4Zj4pNHnHpKuTV_bzP8G1QWgPPr2cykKuZRkso6cs3Y2DQmuYuF2,"-69.04488889","18.75819444",./0.png
-71.8588482,18.4929823,VILLA ARMONIA O NUEVO JIMANÃ,FRANJAS OCUPADAS,"<img src=""https://doc-04-9s-mymaps.googleusercontent.com/untrusted/hostedimage/n8iup2omsln2bbcql4f65nkp7k/1tqa08nb6v1tv6j41jqg2a69js/1642520769500/YxVS6hvJdcyzigFQtcUxfDRJRPekVVtH/00867828750103162931/5AIsG_vZwVFzlC5W3VIcS2_1_LQoyGxTaW5aMexq4dwEeReX5YBS5",,,https://doc-04-9s-mymaps.googleusercontent.com/untrusted/hostedimage/n8iup2omsln2bbcql4f65nkp7k/1tqa08nb6v1tv6j41jqg2a69js/1642520769500/YxVS6hvJdcyzigFQtcUxfDRJRPekVVtH/00867828750103162931/5AIsG_vZwVFzlC5W3VIcS2_1_LQoyGxTaW5aMexq4dwEeReX5YBS5Q6RAOuOp-y,"-71.8588482","18.4929823",./0.png
-71.23208333,18.81402778,SOLARES DETRÃS DE â€œEL CAUCHOâ€ SAN JUAN,FRANJAS OCUPADAS,"<img src=""https://doc-14-9s-mymaps.googleusercontent.com/untrusted/hostedimage/n8iup2omsln2bbcql4f65nkp7k/lqbk4p8gpshlhg8amhjmie4a3o/1642520769500/YxVS6hvJdcyzigFQtcUxfDRJRPekVVtH/00867828750103162931/5AIsG_vYZOzLfvNO2p12C9eG9qQP111MdHs44a_8VDR1SYTAZe9ki",,,https://doc-14-9s-mymaps.googleusercontent.com/untrusted/hostedimage/n8iup2omsln2bbcql4f65nkp7k/lqbk4p8gpshlhg8amhjmie4a3o/1642520769500/YxVS6hvJdcyzigFQtcUxfDRJRPekVVtH/00867828750103162931/5AIsG_vYZOzLfvNO2p12C9eG9qQP111MdHs44a_8VDR1SYTAZe9kiwf1l9kgMw_,"-71.23208333","18.81402778",./0.png
-68.98627778,18.44233333,PROYECTO VILLA SAN CARLOS,FRANJAS OCUPADAS,"<img src=""https://doc-0s-9s-mymaps.googleusercontent.com/untrusted/hostedimage/n8iup2omsln2bbcql4f65nkp7k/48ctnv6vuig102bj2oqecdslus/1642520769500/YxVS6hvJdcyzigFQtcUxfDRJRPekVVtH/00867828750103162931/5AIsG_vb6Plph9PwZsJyLG6IBiz1HrNQLmdTgUF-yPtlebeGeDPBr",,,https://doc-0s-9s-mymaps.googleusercontent.com/untrusted/hostedimage/n8iup2omsln2bbcql4f65nkp7k/48ctnv6vuig102bj2oqecdslus/1642520769500/YxVS6hvJdcyzigFQtcUxfDRJRPekVVtH/00867828750103162931/5AIsG_vb6Plph9PwZsJyLG6IBiz1HrNQLmdTgUF-yPtlebeGeDPBrZ5F-dJAq9J,"-68.98627778","18.44233333",./0.png
-68.98627778,18.44480556,PROYECTO VILLA SAN CARLOS,FRANJAS OCUPADAS,"<img src=""https://doc-0k-9s-mymaps.googleusercontent.com/untrusted/hostedimage/n8iup2omsln2bbcql4f65nkp7k/qc2cs4e7jv4e99uvki2o4a2770/1642520769500/YxVS6hvJdcyzigFQtcUxfDRJRPekVVtH/00867828750103162931/5AIsG_vbzofQpwmLD74rFPQ2nSfjUY_zSWItNwrkhzPBX0hz7X6Wa",,,https://doc-0k-9s-mymaps.googleusercontent.com/untrusted/hostedimage/n8iup2omsln2bbcql4f65nkp7k/qc2cs4e7jv4e99uvki2o4a2770/1642520769500/YxVS6hvJdcyzigFQtcUxfDRJRPekVVtH/00867828750103162931/5AIsG_vbzofQpwmLD74rFPQ2nSfjUY_zSWItNwrkhzPBX0hz7X6WaNetiqENR9-,"-68.98627778","18.44480556",./0.png
-71.52419444,18.37336111,"TERRENOS GUANUMA, DUVERGE.",FRANJAS OCUPADAS,"<img src=""https://doc-04-9s-mymaps.googleusercontent.com/untrusted/hostedimage/n8iup2omsln2bbcql4f65nkp7k/paqq1uopg6s88gsdj7ufelnl9o/1642520769500/YxVS6hvJdcyzigFQtcUxfDRJRPekVVtH/00867828750103162931/5AIsG_vYoiHFuS_M1HVvNLTNY_bWdl6qg1TIQo-hpKFB6lrBk2v4r",,,https://doc-04-9s-mymaps.googleusercontent.com/untrusted/hostedimage/n8iup2omsln2bbcql4f65nkp7k/paqq1uopg6s88gsdj7ufelnl9o/1642520769500/YxVS6hvJdcyzigFQtcUxfDRJRPekVVtH/00867828750103162931/5AIsG_vYoiHFuS_M1HVvNLTNY_bWdl6qg1TIQo-hpKFB6lrBk2v4rQHBBVtwaOJ,"-71.52419444","18.37336111",./0.png
-70.16444,18.64094,ECOVILMA VILLA ALTAGRACIA,FRANJAS OCUPADAS,"<img src=""https://doc-0o-9s-mymaps.googleusercontent.com/untrusted/hostedimage/n8iup2omsln2bbcql4f65nkp7k/1joa9u86uefrrjt2n8tfin2o1c/1642520769500/YxVS6hvJdcyzigFQtcUxfDRJRPekVVtH/00867828750103162931/5AIsG_vYzLLh8523XACQ4N8Curg36T3XYBWqzoa6whYYJG-8JI1XP",,,https://doc-0o-9s-mymaps.googleusercontent.com/untrusted/hostedimage/n8iup2omsln2bbcql4f65nkp7k/1joa9u86uefrrjt2n8tfin2o1c/1642520769500/YxVS6hvJdcyzigFQtcUxfDRJRPekVVtH/00867828750103162931/5AIsG_vYzLLh8523XACQ4N8Curg36T3XYBWqzoa6whYYJG-8JI1XPrZh91NoQcS,"-70.16444","18.64094",./0.png
-69.40344444,18.55880556,ALMACEN QUISQUEYA SAN PEDRO,ALMACENES,"<img src=""https://doc-0o-9s-mymaps.googleusercontent.com/untrusted/hostedimage/n8iup2omsln2bbcql4f65nkp7k/k4j53l6up4hjg764bfrhn8kmhk/1642520769500/YxVS6hvJdcyzigFQtcUxfDRJRPekVVtH/00867828750103162931/5AIsG_vYugWrTERUtEGpWlQf3Xvb5CA9lq5nN-u1KvsDrQ-5SLhf6",Almacen de abastecimiento de la zona Este del INVI.,,https://doc-0o-9s-mymaps.googleusercontent.com/untrusted/hostedimage/n8iup2omsln2bbcql4f65nkp7k/k4j53l6up4hjg764bfrhn8kmhk/1642520769500/YxVS6hvJdcyzigFQtcUxfDRJRPekVVtH/00867828750103162931/5AIsG_vYugWrTERUtEGpWlQf3Xvb5CA9lq5nN-u1KvsDrQ-5SLhf66rbgkKuPfm,"-69.40344444","18.55880556",./0.png
-70.72416667,19.47802778,ALMACEN SANTIAGO,ALMACENES,"<img src=""https://doc-14-9s-mymaps.googleusercontent.com/untrusted/hostedimage/n8iup2omsln2bbcql4f65nkp7k/82f52rdpf9a8belq3cdsq4hs08/1642520769500/YxVS6hvJdcyzigFQtcUxfDRJRPekVVtH/00867828750103162931/5AIsG_vYsjJQQMM17dTFQrSlw6FyrNoxbVSPvfXOvpg51PNKexFUC",Almacen de abastecimiento de materiales del INVI,,https://doc-14-9s-mymaps.googleusercontent.com/untrusted/hostedimage/n8iup2omsln2bbcql4f65nkp7k/82f52rdpf9a8belq3cdsq4hs08/1642520769500/YxVS6hvJdcyzigFQtcUxfDRJRPekVVtH/00867828750103162931/5AIsG_vYsjJQQMM17dTFQrSlw6FyrNoxbVSPvfXOvpg51PNKexFUCT8LgMNBJdE,"-70.72416667","19.47802778",./0.png
-70.0471704,18.4833557,ALMACEN HATO NUEVO,ALMACENES,"<img src=""https://doc-0c-9s-mymaps.googleusercontent.com/untrusted/hostedimage/n8iup2omsln2bbcql4f65nkp7k/asth1d95s6icjktbs9ulfjr8ao/1642520769500/YxVS6hvJdcyzigFQtcUxfDRJRPekVVtH/00867828750103162931/5AIsG_vbB6MoOCBiE1Kwj0abg28d4jghTdmOx_vRu0Zwz73ZitRM_","Este es el almacen de abastecimiento de materiales, de todo el MIVHED",,https://doc-0c-9s-mymaps.googleusercontent.com/untrusted/hostedimage/n8iup2omsln2bbcql4f65nkp7k/asth1d95s6icjktbs9ulfjr8ao/1642520769500/YxVS6hvJdcyzigFQtcUxfDRJRPekVVtH/00867828750103162931/5AIsG_vbB6MoOCBiE1Kwj0abg28d4jghTdmOx_vRu0Zwz73ZitRM_6Yovd8UFXf,"-70.0471704","18.4833557",./0.png
-69.8130926,18.539381,DESTACANENTO VILLA LIBERACION,DESTACAMENTOS MIVHED,"<img src=""https://doc-0c-9s-mymaps.googleusercontent.com/untrusted/hostedimage/n8iup2omsln2bbcql4f65nkp7k/cdh5ov7uuqar6m61inbvlmkjvg/1642520769500/YxVS6hvJdcyzigFQtcUxfDRJRPekVVtH/00867828750103162931/5AIsG_vZms-n51XImhcIgW0Kc2UvoXh1E9rozjqUgeGJsuUj5q-wg",,,https://doc-0c-9s-mymaps.googleusercontent.com/untrusted/hostedimage/n8iup2omsln2bbcql4f65nkp7k/cdh5ov7uuqar6m61inbvlmkjvg/1642520769500/YxVS6hvJdcyzigFQtcUxfDRJRPekVVtH/00867828750103162931/5AIsG_vZms-n51XImhcIgW0Kc2UvoXh1E9rozjqUgeGJsuUj5q-wgpCE-wIlwgM,"-69.8130926","18.539381",./0.png
-70.0559444,18.5421389,HATO NUEVO,PROYECTOS EN DESARROLLO,"<img src=""https://doc-0g-9s-mymaps.googleusercontent.com/untrusted/hostedimage/n8iup2omsln2bbcql4f65nkp7k/qls33b5ert4rje5pkdhr15i08g/1642520769500/YxVS6hvJdcyzigFQtcUxfDRJRPekVVtH/00867828750103162931/5AIsG_vbrBaMLIDAKJQpnvaxoCU1ymF5sxOLW5OfgrOL0R_Mp4SCo",,,https://doc-0g-9s-mymaps.googleusercontent.com/untrusted/hostedimage/n8iup2omsln2bbcql4f65nkp7k/qls33b5ert4rje5pkdhr15i08g/1642520769500/YxVS6hvJdcyzigFQtcUxfDRJRPekVVtH/00867828750103162931/5AIsG_vbrBaMLIDAKJQpnvaxoCU1ymF5sxOLW5OfgrOL0R_Mp4SCoP7qEhvDlPL,"-70.0559444","18.5421389",./0.png
-70.7295811,19.415285,"LA BARRANQUITA, SANTIAGO",PROYECTOS EN DESARROLLO,"<img src=""https://doc-04-9s-mymaps.googleusercontent.com/untrusted/hostedimage/n8iup2omsln2bbcql4f65nkp7k/4nc9va26j2hppr5q0avnj9b18k/1642520769500/YxVS6hvJdcyzigFQtcUxfDRJRPekVVtH/00867828750103162931/5AIsG_vYObwFiCx6bCsf5o8r435hT0kv-ofJbZhAisj2G1EJV-yl3",,,https://doc-04-9s-mymaps.googleusercontent.com/untrusted/hostedimage/n8iup2omsln2bbcql4f65nkp7k/4nc9va26j2hppr5q0avnj9b18k/1642520769500/YxVS6hvJdcyzigFQtcUxfDRJRPekVVtH/00867828750103162931/5AIsG_vYObwFiCx6bCsf5o8r435hT0kv-ofJbZhAisj2G1EJV-yl3ihpLvaYpN2,"-70.7295811","19.415285",./0.png
-69.94111111,18.57202778,"CIUDAD MODELO JACOBO MAJLUTA, SANTO DOMINGO",PROYECTOS EN DESARROLLO,"<img src=""https://doc-0c-9s-mymaps.googleusercontent.com/untrusted/hostedimage/n8iup2omsln2bbcql4f65nkp7k/37vva9lvakh2sob35u6jgle63s/1642520769500/YxVS6hvJdcyzigFQtcUxfDRJRPekVVtH/00867828750103162931/5AIsG_vbTqX9WXA-xtGV52X1HfX3n6JisKwcosOL_hIibO9Uo0m2q",,,https://doc-0c-9s-mymaps.googleusercontent.com/untrusted/hostedimage/n8iup2omsln2bbcql4f65nkp7k/37vva9lvakh2sob35u6jgle63s/1642520769500/YxVS6hvJdcyzigFQtcUxfDRJRPekVVtH/00867828750103162931/5AIsG_vbTqX9WXA-xtGV52X1HfX3n6JisKwcosOL_hIibO9Uo0m2q5zKg585U0o,"-69.94111111","18.57202778",./0.png
-70.7155477,19.4547962,LAS ANTILLAS SANTIAGO,PROYECTOS EN DESARROLLO,"<img src=""https://doc-0c-9s-mymaps.googleusercontent.com/untrusted/hostedimage/n8iup2omsln2bbcql4f65nkp7k/ouikfsvfvcp6iqi53nt599cq0s/1642520769500/YxVS6hvJdcyzigFQtcUxfDRJRPekVVtH/00867828750103162931/5AIsG_vbtv0IasLEW13xqCb_KKXPPQz6PO2YhEXOt04QPXrjlQMrH",,,https://doc-0c-9s-mymaps.googleusercontent.com/untrusted/hostedimage/n8iup2omsln2bbcql4f65nkp7k/ouikfsvfvcp6iqi53nt599cq0s/1642520769500/YxVS6hvJdcyzigFQtcUxfDRJRPekVVtH/00867828750103162931/5AIsG_vbtv0IasLEW13xqCb_KKXPPQz6PO2YhEXOt04QPXrjlQMrHlM9yc81-Lw,"-70.7155477","19.4547962",./0.png
-69.78966667,18.54094444,SAN LUIS,PROYECTOS EN DESARROLLO,"<img src=""https://doc-0g-9s-mymaps.googleusercontent.com/untrusted/hostedimage/n8iup2omsln2bbcql4f65nkp7k/1j8tecijob0r0qrthf3v8golcs/1642520769500/YxVS6hvJdcyzigFQtcUxfDRJRPekVVtH/00867828750103162931/5AIsG_vZ7UUmWXmt4Ss581qCLW-fWbwenGzU8N9EMdCPah3C_htL2",,,https://doc-0g-9s-mymaps.googleusercontent.com/untrusted/hostedimage/n8iup2omsln2bbcql4f65nkp7k/1j8tecijob0r0qrthf3v8golcs/1642520769500/YxVS6hvJdcyzigFQtcUxfDRJRPekVVtH/00867828750103162931/5AIsG_vZ7UUmWXmt4Ss581qCLW-fWbwenGzU8N9EMdCPah3C_htL2h75-j86Cwl,"-69.78966667","18.54094444",./0.png
-71.4406667,19.73475,HOSPITAL MUNICIPAL DE VILLA VASQUEZ,CENTROS DE SALUD,"<img src=""https://doc-0s-9s-mymaps.googleusercontent.com/untrusted/hostedimage/n8iup2omsln2bbcql4f65nkp7k/9cc7c31agdek5o1irb3ljvj6lg/1642520769500/YxVS6hvJdcyzigFQtcUxfDRJRPekVVtH/00867828750103162931/5AIsG_vbmfxiqY2dFGCDrlln3smoEfAi22D7JvY1VIocgFy3dEzTJ",,,https://doc-0s-9s-mymaps.googleusercontent.com/untrusted/hostedimage/n8iup2omsln2bbcql4f65nkp7k/9cc7c31agdek5o1irb3ljvj6lg/1642520769500/YxVS6hvJdcyzigFQtcUxfDRJRPekVVtH/00867828750103162931/5AIsG_vbmfxiqY2dFGCDrlln3smoEfAi22D7JvY1VIocgFy3dEzTJjiJbj4KGfK,"-71.4406667","19.73475",./0.png
